start=new Date('2023-03-04T00:00:00.000Z').valueOf();
sats=[{"ELEMENT_SET_NO":"999","ARG_OF_PERICENTER":"92.3071","MEAN_MOTION":"15.06445232","OBJECT_ID":"2021-018AN","CENTER_NAME":"EARTH","MEAN_MOTION_DOT":"0.00040996","MEAN_ELEMENT_THEORY":"SGP4","BSTAR":"0.00275180000000","SITE":"AFETR","REF_FRAME":"TEME","EPHEMERIS_TYPE":"0","PERIOD":"95.589","APOAPSIS":"547.897","LAUNCH_DATE":"2021-03-11","PERIAPSIS":"546.253","NORAD_CAT_ID":"47823","SEMIMAJOR_AXIS":"6925.210","EPOCH":"2023-03-03T12:17:04.865568","GP_ID":"227433499","ECCENTRICITY":"0.00011870","DECAY_DATE":null,"TLE_LINE1":"1 47823U 21018AN  23062.51186187  .00040996  00000-0  27518-2 0  9999","INCLINATION":"53.0521","MEAN_MOTION_DDOT":"0.0000000000000","CLASSIFICATION_TYPE":"U","TIME_SYSTEM":"UTC","OBJECT_TYPE":"PAYLOAD","REV_AT_EPOCH":"11047","TLE_LINE2":"2 47823  53.0521 159.4760 0001187  92.3071 267.8054 15.06445232110470","RCS_SIZE":"LARGE","OBJECT_NAME":"STARLINK-2408","FILE":"3850400","COUNTRY_CODE":"US","RA_OF_ASC_NODE":"159.4760","MEAN_ANOMALY":"267.8054"},{"MEAN_MOTION":"15.06440826","ELEMENT_SET_NO":"999","ARG_OF_PERICENTER":"105.4975","SITE":"AFETR","OBJECT_ID":"2021-018AP","CENTER_NAME":"EARTH","MEAN_MOTION_DOT":"0.00019866","BSTAR":"0.00134730000000","MEAN_ELEMENT_THEORY":"SGP4","APOAPSIS":"547.917","PERIOD":"95.590","LAUNCH_DATE":"2021-03-11","REF_FRAME":"TEME","EPHEMERIS_TYPE":"0","NORAD_CAT_ID":"47824","SEMIMAJOR_AXIS":"6925.223","EPOCH":"2023-03-03T16:49:07.880160","GP_ID":"227432246","PERIAPSIS":"546.259","ECCENTRICITY":"0.00011970","DECAY_DATE":null,"TLE_LINE1":"1 47824U 21018AP  23062.70078565  .00019866  00000-0  13473-2 0  9998","INCLINATION":"53.0515","TIME_SYSTEM":"UTC","OBJECT_TYPE":"PAYLOAD","MEAN_MOTION_DDOT":"0.0000000000000","CLASSIFICATION_TYPE":"U","RCS_SIZE":"LARGE","TLE_LINE2":"2 47824  53.0515 158.6358 0001197 105.4975 254.6146 15.06440826110490","FILE":"3850400","OBJECT_NAME":"STARLINK-2409","REV_AT_EPOCH":"11049","COUNTRY_CODE":"US","RA_OF_ASC_NODE":"158.6358","MEAN_ANOMALY":"254.6146"},{"APOAPSIS":"548.468","PERIOD":"95.588","LAUNCH_DATE":"2021-03-11","REF_FRAME":"TEME","EPHEMERIS_TYPE":"0","NORAD_CAT_ID":"47825","SEMIMAJOR_AXIS":"6925.169","EPOCH":"2023-03-03T18:51:12.562848","GP_ID":"227432496","PERIAPSIS":"545.600","MEAN_MOTION":"15.06458631","ELEMENT_SET_NO":"999","ARG_OF_PERICENTER":"49.6300","SITE":"AFETR","OBJECT_ID":"2021-018AQ","CENTER_NAME":"EARTH","MEAN_MOTION_DOT":"0.00041507","MEAN_ELEMENT_THEORY":"SGP4","BSTAR":"0.00278460000000","TLE_LINE2":"2 47825  53.0525 158.2600 0002071  49.6300 310.4869 15.06458631110510","RCS_SIZE":"LARGE","OBJECT_NAME":"STARLINK-2410","FILE":"3850400","REV_AT_EPOCH":"11051","COUNTRY_CODE":"US","RA_OF_ASC_NODE":"158.2600","MEAN_ANOMALY":"310.4869","ECCENTRICITY":"0.00020710","DECAY_DATE":null,"INCLINATION":"53.0525","TLE_LINE1":"1 47825U 21018AQ  23062.78556207  .00041507  00000-0  27846-2 0  9997","TIME_SYSTEM":"UTC","OBJECT_TYPE":"PAYLOAD","MEAN_MOTION_DDOT":"0.0000000000000","CLASSIFICATION_TYPE":"U"},{"SEMIMAJOR_AXIS":"6925.178","NORAD_CAT_ID":"47826","GP_ID":"227433249","EPOCH":"2023-03-03T15:34:49.487232","PERIAPSIS":"546.311","PERIOD":"95.589","APOAPSIS":"547.774","LAUNCH_DATE":"2021-03-11","REF_FRAME":"TEME","EPHEMERIS_TYPE":"0","SITE":"AFETR","CENTER_NAME":"EARTH","OBJECT_ID":"2021-018AR","MEAN_ELEMENT_THEORY":"SGP4","BSTAR":"0.00234700000000","MEAN_MOTION_DOT":"0.00034904","MEAN_MOTION":"15.06455808","ELEMENT_SET_NO":"999","ARG_OF_PERICENTER":"119.2563","COUNTRY_CODE":"US","MEAN_ANOMALY":"240.8532","RA_OF_ASC_NODE":"158.8704","TLE_LINE2":"2 47826  53.0521 158.8704 0001056 119.2563 240.8532 15.06455808110498","RCS_SIZE":"LARGE","FILE":"3850400","OBJECT_NAME":"STARLINK-2411","REV_AT_EPOCH":"11049","OBJECT_TYPE":"PAYLOAD","TIME_SYSTEM":"UTC","CLASSIFICATION_TYPE":"U","MEAN_MOTION_DDOT":"0.0000000000000","ECCENTRICITY":"0.00010560","TLE_LINE1":"1 47826U 21018AR  23062.64918388  .00034904  00000-0  23470-2 0  9997","INCLINATION":"53.0521","DECAY_DATE":null},{"OBJECT_ID":"2021-018AS","CENTER_NAME":"EARTH","MEAN_MOTION_DOT":"0.00047180","BSTAR":"0.00316040000000","MEAN_ELEMENT_THEORY":"SGP4","SITE":"AFETR","ELEMENT_SET_NO":"999","ARG_OF_PERICENTER":"73.8933","MEAN_MOTION":"15.06455388","PERIAPSIS":"545.684","NORAD_CAT_ID":"47827","SEMIMAJOR_AXIS":"6925.179","EPOCH":"2023-03-03T18:20:44.722464","GP_ID":"227433000","REF_FRAME":"TEME","EPHEMERIS_TYPE":"0","PERIOD":"95.589","APOAPSIS":"548.404","LAUNCH_DATE":"2021-03-11","MEAN_MOTION_DDOT":"0.0000000000000","CLASSIFICATION_TYPE":"U","TIME_SYSTEM":"UTC","OBJECT_TYPE":"PAYLOAD","ECCENTRICITY":"0.00019640","DECAY_DATE":null,"INCLINATION":"53.0547","TLE_LINE1":"1 47827U 21018AS  23062.76440651  .00047180  00000-0  31604-2 0  9992","COUNTRY_CODE":"US","RA_OF_ASC_NODE":"148.5882","MEAN_ANOMALY":"286.2272","REV_AT_EPOCH":"11070","TLE_LINE2":"2 47827  53.0547 148.5882 0001964  73.8933 286.2272 15.06455388110706","RCS_SIZE":"LARGE","OBJECT_NAME":"STARLINK-2413","FILE":"3850400"},{"MEAN_ANOMALY":"243.0079","RA_OF_ASC_NODE":"168.6405","COUNTRY_CODE":"US","FILE":"3850400","OBJECT_NAME":"STARLINK-2415","TLE_LINE2":"2 47828  53.0523 168.6405 0001889 117.1103 243.0079 15.06434053110366","RCS_SIZE":"LARGE","REV_AT_EPOCH":"11036","OBJECT_TYPE":"PAYLOAD","TIME_SYSTEM":"UTC","CLASSIFICATION_TYPE":"U","MEAN_MOTION_DDOT":"0.0000000000000","INCLINATION":"53.0523","TLE_LINE1":"1 47828U 21018AT  23062.69986583  .00011443  00000-0  78514-3 0  9999","DECAY_DATE":null,"ECCENTRICITY":"0.00018890","GP_ID":"227431747","EPOCH":"2023-03-03T16:47:48.407712","SEMIMAJOR_AXIS":"6925.244","NORAD_CAT_ID":"47828","PERIAPSIS":"545.801","LAUNCH_DATE":"2021-03-11","APOAPSIS":"548.417","PERIOD":"95.590","EPHEMERIS_TYPE":"0","REF_FRAME":"TEME","SITE":"AFETR","MEAN_ELEMENT_THEORY":"SGP4","BSTAR":"0.00078514000000","MEAN_MOTION_DOT":"0.00011443","CENTER_NAME":"EARTH","OBJECT_ID":"2021-018AT","MEAN_MOTION":"15.06434053","ARG_OF_PERICENTER":"117.1103","ELEMENT_SET_NO":"999"},{"PERIAPSIS":"546.503","EPOCH":"2023-03-03T17:14:20.384736","GP_ID":"227431997","NORAD_CAT_ID":"47829","SEMIMAJOR_AXIS":"6925.183","EPHEMERIS_TYPE":"0","REF_FRAME":"TEME","LAUNCH_DATE":"2021-03-11","APOAPSIS":"547.593","PERIOD":"95.589","MEAN_MOTION_DOT":"0.00049994","BSTAR":"0.00334660000000","MEAN_ELEMENT_THEORY":"SGP4","OBJECT_ID":"2021-018AU","CENTER_NAME":"EARTH","SITE":"AFETR","ARG_OF_PERICENTER":"77.8519","ELEMENT_SET_NO":"999","MEAN_MOTION":"15.06453916","RA_OF_ASC_NODE":"168.5593","MEAN_ANOMALY":"282.2558","COUNTRY_CODE":"US","REV_AT_EPOCH":"11035","OBJECT_NAME":"STARLINK-2416","FILE":"3850400","TLE_LINE2":"2 47829  53.0524 168.5593 0000787  77.8519 282.2558 15.06453916110359","RCS_SIZE":"LARGE","MEAN_MOTION_DDOT":"0.0000000000000","CLASSIFICATION_TYPE":"U","TIME_SYSTEM":"UTC","OBJECT_TYPE":"PAYLOAD","DECAY_DATE":null,"TLE_LINE1":"1 47829U 21018AU  23062.71829149  .00049994  00000-0  33466-2 0  9995","INCLINATION":"53.0524","ECCENTRICITY":"0.00007870"},{"LAUNCH_DATE":"2021-03-11","PERIOD":"95.590","APOAPSIS":"547.631","EPHEMERIS_TYPE":"0","REF_FRAME":"TEME","GP_ID":"227400267","EPOCH":"2023-03-03T10:46:53.359680","SEMIMAJOR_AXIS":"6925.241","NORAD_CAT_ID":"47830","PERIAPSIS":"546.581","MEAN_MOTION":"15.06435007","ARG_OF_PERICENTER":"64.4879","ELEMENT_SET_NO":"999","SITE":"AFETR","MEAN_ELEMENT_THEORY":"SGP4","BSTAR":"0.00246640000000","MEAN_MOTION_DOT":"0.00036682","CENTER_NAME":"EARTH","OBJECT_ID":"2021-018AV","OBJECT_NAME":"STARLINK-2419","FILE":"3850163","TLE_LINE2":"2 47830  53.0515 169.7666 0000758  64.4879 295.6188 15.06435007110318","RCS_SIZE":"LARGE","REV_AT_EPOCH":"11031","MEAN_ANOMALY":"295.6188","RA_OF_ASC_NODE":"169.7666","COUNTRY_CODE":"US","INCLINATION":"53.0515","TLE_LINE1":"1 47830U 21018AV  23062.44922870  .00036682  00000-0  24664-2 0  9992","DECAY_DATE":null,"ECCENTRICITY":"0.00007580","OBJECT_TYPE":"PAYLOAD","TIME_SYSTEM":"UTC","CLASSIFICATION_TYPE":"U","MEAN_MOTION_DDOT":"0.0000000000000"},{"CENTER_NAME":"EARTH","OBJECT_ID":"2021-018AW","BSTAR":"0.00285920000000","MEAN_ELEMENT_THEORY":"SGP4","MEAN_MOTION_DOT":"0.00042658","SITE":"AFETR","ELEMENT_SET_NO":"999","ARG_OF_PERICENTER":"82.9672","MEAN_MOTION":"15.06480722","PERIAPSIS":"546.115","SEMIMAJOR_AXIS":"6925.101","NORAD_CAT_ID":"47831","GP_ID":"227433500","EPOCH":"2023-03-03T15:34:09.626592","REF_FRAME":"TEME","EPHEMERIS_TYPE":"0","PERIOD":"95.587","APOAPSIS":"547.817","LAUNCH_DATE":"2021-03-11","CLASSIFICATION_TYPE":"U","MEAN_MOTION_DDOT":"0.0000000000000","OBJECT_TYPE":"PAYLOAD","TIME_SYSTEM":"UTC","ECCENTRICITY":"0.00012290","INCLINATION":"53.0556","TLE_LINE1":"1 47831U 21018AW  23062.64872253  .00042658  00000-0  28592-2 0  9998","DECAY_DATE":null,"COUNTRY_CODE":"US","MEAN_ANOMALY":"277.1456","RA_OF_ASC_NODE":"143.8706","REV_AT_EPOCH":"11075","TLE_LINE2":"2 47831  53.0556 143.8706 0001229  82.9672 277.1456 15.06480722110757","RCS_SIZE":"LARGE","FILE":"3850400","OBJECT_NAME":"STARLINK-2420"},{"MEAN_MOTION":"15.06453288","ARG_OF_PERICENTER":"93.2827","ELEMENT_SET_NO":"999","SITE":"AFETR","MEAN_ELEMENT_THEORY":"SGP4","BSTAR":"0.00213390000000","MEAN_MOTION_DOT":"0.00031692","CENTER_NAME":"EARTH","OBJECT_ID":"2021-018AX","LAUNCH_DATE":"2021-03-11","APOAPSIS":"547.858","PERIOD":"95.589","EPHEMERIS_TYPE":"0","REF_FRAME":"TEME","GP_ID":"227432247","EPOCH":"2023-03-03T16:06:40.438368","SEMIMAJOR_AXIS":"6925.185","NORAD_CAT_ID":"47832","PERIAPSIS":"546.242","INCLINATION":"53.0521","TLE_LINE1":"1 47832U 21018AX  23062.67130137  .00031692  00000-0  21339-2 0  9998","DECAY_DATE":null,"ECCENTRICITY":"0.00011670","OBJECT_TYPE":"PAYLOAD","TIME_SYSTEM":"UTC","CLASSIFICATION_TYPE":"U","MEAN_MOTION_DDOT":"0.0000000000000","OBJECT_NAME":"STARLINK-2422","FILE":"3850400","TLE_LINE2":"2 47832  53.0521 158.7714 0001167  93.2827 266.8295 15.06453288110496","RCS_SIZE":"LARGE","REV_AT_EPOCH":"11049","MEAN_ANOMALY":"266.8295","RA_OF_ASC_NODE":"158.7714","COUNTRY_CODE":"US"}];
